{"type": "FeatureCollection", "features": [{"type": "Feature", "geometry": {"type": "Point", "coordinates": [-120.41831, 47.37365]}, "properties": {"STATE_ABBR": "WA", "STATE_NAME": "Washington"}}, {"type": "Feature", "geometry": {"type": "Point", "coordinates": [-109.65179, 47.03229]}, "properties": {"STATE_ABBR": "MT", "STATE_NAME": "Montana"}}, {"type": "Feature", "geometry": {"type": "Point", "coordinates": [-69.23756, 45.39243]}, "properties": {"STATE_ABBR": "ME", "STATE_NAME": "Maine"}}, {"type": "Feature", "geometry": {"type": "Point", "coordinates": [-100.47034, 47.44608]}, "properties": {"STATE_ABBR": "ND", "STATE_NAME": "North Dakota"}}, {"type": "Feature", "geometry": {"type": "Point", "coordinates": [-100.23487, 44.43333]}, "properties": {"STATE_ABBR": "SD", "STATE_NAME": "South Dakota"}}, {"type": "Feature", "geometry": {"type": "Point", "coordinates": [-107.55246, 42.99831]}, "properties": {"STATE_ABBR": "WY", "STATE_NAME": "Wyoming"}}, {"type": "Feature", "geometry": {"type": "Point", "coordinates": [-90.01959, 44.63118]}, "properties": {"STATE_ABBR": "WI", "STATE_NAME": "Wisconsin"}}, {"type": "Feature", "geometry": {"type": "Point", "coordinates": [-114.66095, 44.38598]}, "properties": {"STATE_ABBR": "ID", "STATE_NAME": "Idaho"}}, {"type": "Feature", "geometry": {"type": "Point", "coordinates": [-72.66111, 44.07218]}, "properties": {"STATE_ABBR": "VT", "STATE_NAME": "Vermont"}}, {"type": "Feature", "geometry": {"type": "Point", "coordinates": [-94.30568, 46.31569]}, "properties": {"STATE_ABBR": "MN", "STATE_NAME": "Minnesota"}}, {"type": "Feature", "geometry": {"type": "Point", "coordinates": [-120.55352, 43.93165]}, "properties": {"STATE_ABBR": "OR", "STATE_NAME": "Oregon"}}, {"type": "Feature", "geometry": {"type": "Point", "coordinates": [-71.57825, 43.68512]}, "properties": {"STATE_ABBR": "NH", "STATE_NAME": "New Hampshire"}}, {"type": "Feature", "geometry": {"type": "Point", "coordinates": [-93.50087, 42.076]}, "properties": {"STATE_ABBR": "IA", "STATE_NAME": "Iowa"}}, {"type": "Feature", "geometry": {"type": "Point", "coordinates": [-71.8266, 42.27255]}, "properties": {"STATE_ABBR": "MA", "STATE_NAME": "Massachusetts"}}, {"type": "Feature", "geometry": {"type": "Point", "coordinates": [-99.80741, 41.52316]}, "properties": {"STATE_ABBR": "NE", "STATE_NAME": "Nebraska"}}, {"type": "Feature", "geometry": {"type": "Point", "coordinates": [-75.58331, 43.01005]}, "properties": {"STATE_ABBR": "NY", "STATE_NAME": "New York"}}, {"type": "Feature", "geometry": {"type": "Point", "coordinates": [-77.80314, 40.87481]}, "properties": {"STATE_ABBR": "PA", "STATE_NAME": "Pennsylvania"}}, {"type": "Feature", "geometry": {"type": "Point", "coordinates": [-72.72523, 41.61794]}, "properties": {"STATE_ABBR": "CT", "STATE_NAME": "Connecticut"}}, {"type": "Feature", "geometry": {"type": "Point", "coordinates": [-71.5933, 41.6933]}, "properties": {"STATE_ABBR": "RI", "STATE_NAME": "Rhode Island"}}, {"type": "Feature", "geometry": {"type": "Point", "coordinates": [-74.67702, 40.19821]}, "properties": {"STATE_ABBR": "NJ", "STATE_NAME": "New Jersey"}}, {"type": "Feature", "geometry": {"type": "Point", "coordinates": [-86.27616, 39.91269]}, "properties": {"STATE_ABBR": "IN", "STATE_NAME": "Indiana"}}, {"type": "Feature", "geometry": {"type": "Point", "coordinates": [-116.64982, 39.35209]}, "properties": {"STATE_ABBR": "NV", "STATE_NAME": "Nevada"}}, {"type": "Feature", "geometry": {"type": "Point", "coordinates": [-111.6753, 39.32255]}, "properties": {"STATE_ABBR": "UT", "STATE_NAME": "Utah"}}, {"type": "Feature", "geometry": {"type": "Point", "coordinates": [-119.60068, 37.2487]}, "properties": {"STATE_ABBR": "CA", "STATE_NAME": "California"}}, {"type": "Feature", "geometry": {"type": "Point", "coordinates": [-82.78751, 40.28747]}, "properties": {"STATE_ABBR": "OH", "STATE_NAME": "Ohio"}}, {"type": "Feature", "geometry": {"type": "Point", "coordinates": [-89.20369, 40.06397]}, "properties": {"STATE_ABBR": "IL", "STATE_NAME": "Illinois"}}, {"type": "Feature", "geometry": {"type": "Point", "coordinates": [-77.01593, 38.90249]}, "properties": {"STATE_ABBR": "DC", "STATE_NAME": "District of Columbia"}}, {"type": "Feature", "geometry": {"type": "Point", "coordinates": [-75.50091, 38.995]}, "properties": {"STATE_ABBR": "DE", "STATE_NAME": "Delaware"}}, {"type": "Feature", "geometry": {"type": "Point", "coordinates": [-80.61425, 38.64111]}, "properties": {"STATE_ABBR": "WV", "STATE_NAME": "West Virginia"}}, {"type": "Feature", "geometry": {"type": "Point", "coordinates": [-76.82549, 39.06634]}, "properties": {"STATE_ABBR": "MD", "STATE_NAME": "Maryland"}}, {"type": "Feature", "geometry": {"type": "Point", "coordinates": [-105.5473, 38.99727]}, "properties": {"STATE_ABBR": "CO", "STATE_NAME": "Colorado"}}, {"type": "Feature", "geometry": {"type": "Point", "coordinates": [-85.28838, 37.52692]}, "properties": {"STATE_ABBR": "KY", "STATE_NAME": "Kentucky"}}, {"type": "Feature", "geometry": {"type": "Point", "coordinates": [-98.3829, 38.48264]}, "properties": {"STATE_ABBR": "KS", "STATE_NAME": "Kansas"}}, {"type": "Feature", "geometry": {"type": "Point", "coordinates": [-78.89848, 37.51638]}, "properties": {"STATE_ABBR": "VA", "STATE_NAME": "Virginia"}}, {"type": "Feature", "geometry": {"type": "Point", "coordinates": [-92.48002, 38.36395]}, "properties": {"STATE_ABBR": "MO", "STATE_NAME": "Missouri"}}, {"type": "Feature", "geometry": {"type": "Point", "coordinates": [-111.66388, 34.29165]}, "properties": {"STATE_ABBR": "AZ", "STATE_NAME": "Arizona"}}, {"type": "Feature", "geometry": {"type": "Point", "coordinates": [-97.50915, 35.58391]}, "properties": {"STATE_ABBR": "OK", "STATE_NAME": "Oklahoma"}}, {"type": "Feature", "geometry": {"type": "Point", "coordinates": [-79.41359, 35.54663]}, "properties": {"STATE_ABBR": "NC", "STATE_NAME": "North Carolina"}}, {"type": "Feature", "geometry": {"type": "Point", "coordinates": [-86.3341, 35.84663]}, "properties": {"STATE_ABBR": "TN", "STATE_NAME": "Tennessee"}}, {"type": "Feature", "geometry": {"type": "Point", "coordinates": [-99.355, 31.49556]}, "properties": {"STATE_ABBR": "TX", "STATE_NAME": "Texas"}}, {"type": "Feature", "geometry": {"type": "Point", "coordinates": [-106.10184, 34.42335]}, "properties": {"STATE_ABBR": "NM", "STATE_NAME": "New Mexico"}}, {"type": "Feature", "geometry": {"type": "Point", "coordinates": [-86.82636, 32.79469]}, "properties": {"STATE_ABBR": "AL", "STATE_NAME": "Alabama"}}, {"type": "Feature", "geometry": {"type": "Point", "coordinates": [-89.66394, 32.75903]}, "properties": {"STATE_ABBR": "MS", "STATE_NAME": "Mississippi"}}, {"type": "Feature", "geometry": {"type": "Point", "coordinates": [-83.45586, 32.6563]}, "properties": {"STATE_ABBR": "GA", "STATE_NAME": "Georgia"}}, {"type": "Feature", "geometry": {"type": "Point", "coordinates": [-80.90142, 33.92088]}, "properties": {"STATE_ABBR": "SC", "STATE_NAME": "South Carolina"}}, {"type": "Feature", "geometry": {"type": "Point", "coordinates": [-92.43365, 34.89786]}, "properties": {"STATE_ABBR": "AR", "STATE_NAME": "Arkansas"}}, {"type": "Feature", "geometry": {"type": "Point", "coordinates": [-92.03154, 31.10335]}, "properties": {"STATE_ABBR": "LA", "STATE_NAME": "Louisiana"}}, {"type": "Feature", "geometry": {"type": "Point", "coordinates": [-82.50061, 28.66149]}, "properties": {"STATE_ABBR": "FL", "STATE_NAME": "Florida"}}, {"type": "Feature", "geometry": {"type": "Point", "coordinates": [-86.92946, 21.82638]}, "properties": {"STATE_ABBR": "HI", "STATE_NAME": "Hawaii"}}, {"type": "Feature", "geometry": {"type": "Point", "coordinates": [-112.61264, 22.46583]}, "properties": {"STATE_ABBR": "AK", "STATE_NAME": "Alaska"}}, {"type": "Feature", "geometry": {"type": "Point", "coordinates": [-84.62862, 43.48264]}, "properties": {"STATE_ABBR": "MI", "STATE_NAME": "Michigan"}}]}