{
"type": "FeatureCollection",
"name": "Cities2020",
"crs": { "type": "name", "properties": { "name": "urn:ogc:def:crs:OGC:1.3:CRS84" } },
"features": [
{ "type": "Feature", "properties": { "OBJECTID": 88, "NAME": "Seattle", "CLASS": "City", "ST": "WA", "STFIPS": "53", "PLACEFIP": "63000", "CAPITAL": " ", "AREALAND": 83.872, "AREAWATER": 58.671, "POP_CLASS": 9, "POP2000": 563374, "POP2007": 593350 }, "geometry": { "type": "Point", "coordinates": [ -122.333145613978843, 47.626354651745828 ] } },
{ "type": "Feature", "properties": { "OBJECTID": 130, "NAME": "Portland", "CLASS": "City", "ST": "OR", "STFIPS": "41", "PLACEFIP": "59000", "CAPITAL": " ", "AREALAND": 134.32, "AREAWATER": 11.048, "POP_CLASS": 9, "POP2000": 529121, "POP2007": 551302 }, "geometry": { "type": "Point", "coordinates": [ -122.640154630831489, 45.523036149498751 ] } },
{ "type": "Feature", "properties": { "OBJECTID": 287, "NAME": "San Francisco", "CLASS": "City", "ST": "CA", "STFIPS": "06", "PLACEFIP": "67000", "CAPITAL": " ", "AREALAND": 46.694, "AREAWATER": 185.221, "POP_CLASS": 9, "POP2000": 776733, "POP2007": 796417 }, "geometry": { "type": "Point", "coordinates": [ -122.437391622525354, 37.759881667205207 ] } },
{ "type": "Feature", "properties": { "OBJECTID": 325, "NAME": "San Jose", "CLASS": "City", "ST": "CA", "STFIPS": "06", "PLACEFIP": "68000", "CAPITAL": " ", "AREALAND": 174.863, "AREAWATER": 3.315, "POP_CLASS": 9, "POP2000": 894943, "POP2007": 946979 }, "geometry": { "type": "Point", "coordinates": [ -121.872736135764001, 37.30405466469108 ] } },
{ "type": "Feature", "properties": { "OBJECTID": 400, "NAME": "Fresno", "CLASS": "City", "ST": "CA", "STFIPS": "06", "PLACEFIP": "27000", "CAPITAL": " ", "AREALAND": 104.363, "AREAWATER": 0.441, "POP_CLASS": 8, "POP2000": 427652, "POP2007": 475005 }, "geometry": { "type": "Point", "coordinates": [ -119.792109133129941, 36.781545671795357 ] } },
{ "type": "Feature", "properties": { "OBJECTID": 425, "NAME": "San Diego", "CLASS": "City", "ST": "CA", "STFIPS": "06", "PLACEFIP": "66000", "CAPITAL": " ", "AREALAND": 324.341, "AREAWATER": 47.69, "POP_CLASS": 10, "POP2000": 1223400, "POP2007": 1301514 }, "geometry": { "type": "Point", "coordinates": [ -117.146345601768076, 32.779545643316851 ] } },
{ "type": "Feature", "properties": { "OBJECTID": 469, "NAME": "Los Angeles", "CLASS": "City", "ST": "CA", "STFIPS": "06", "PLACEFIP": "44000", "CAPITAL": " ", "AREALAND": 469.072, "AREAWATER": 29.216, "POP_CLASS": 10, "POP2000": 3694820, "POP2007": 3908521 }, "geometry": { "type": "Point", "coordinates": [ -118.375981604467427, 34.086163670716871 ] } },
{ "type": "Feature", "properties": { "OBJECTID": 517, "NAME": "Long Beach", "CLASS": "City", "ST": "CA", "STFIPS": "06", "PLACEFIP": "43000", "CAPITAL": " ", "AREALAND": 50.44, "AREAWATER": 15.426, "POP_CLASS": 8, "POP2000": 461522, "POP2007": 486861 }, "geometry": { "type": "Point", "coordinates": [ -118.158027129448442, 33.804136142169284 ] } },
{ "type": "Feature", "properties": { "OBJECTID": 650, "NAME": "Las Vegas", "CLASS": "City", "ST": "NV", "STFIPS": "32", "PLACEFIP": "40000", "CAPITAL": " ", "AREALAND": 113.305, "AREAWATER": 0.051, "POP_CLASS": 8, "POP2000": 478434, "POP2007": 568767 }, "geometry": { "type": "Point", "coordinates": [ -115.222063634229301, 36.194163137019189 ] } },
{ "type": "Feature", "properties": { "OBJECTID": 664, "NAME": "Tucson", "CLASS": "City", "ST": "AZ", "STFIPS": "04", "PLACEFIP": "77000", "CAPITAL": " ", "AREALAND": 194.672, "AREAWATER": 0.419, "POP_CLASS": 8, "POP2000": 486699, "POP2007": 526777 }, "geometry": { "type": "Point", "coordinates": [ -110.918191119824314, 32.214472637302435 ] } },
{ "type": "Feature", "properties": { "OBJECTID": 696, "NAME": "Phoenix", "CLASS": "City", "ST": "AZ", "STFIPS": "04", "PLACEFIP": "55000", "CAPITAL": "State", "AREALAND": 474.862, "AREAWATER": 0.227, "POP_CLASS": 10, "POP2000": 1321045, "POP2007": 1502129 }, "geometry": { "type": "Point", "coordinates": [ -112.076300116457162, 33.528372655173939 ] } },
{ "type": "Feature", "properties": { "OBJECTID": 790, "NAME": "Denver", "CLASS": "City", "ST": "CO", "STFIPS": "08", "PLACEFIP": "20000", "CAPITAL": "State", "AREALAND": 153.35, "AREAWATER": 1.587, "POP_CLASS": 9, "POP2000": 554636, "POP2007": 578062 }, "geometry": { "type": "Point", "coordinates": [ -104.965481594899643, 39.726291146619189 ] } },
{ "type": "Feature", "properties": { "OBJECTID": 807, "NAME": "El Paso", "CLASS": "City", "ST": "TX", "STFIPS": "48", "PLACEFIP": "24000", "CAPITAL": " ", "AREALAND": 249.075, "AREAWATER": 1.456, "POP_CLASS": 9, "POP2000": 563662, "POP2007": 608849 }, "geometry": { "type": "Point", "coordinates": [ -106.423245602902227, 31.79020915233059 ] } },
{ "type": "Feature", "properties": { "OBJECTID": 814, "NAME": "Albuquerque", "CLASS": "City", "ST": "NM", "STFIPS": "35", "PLACEFIP": "02000", "CAPITAL": " ", "AREALAND": 180.641, "AREAWATER": 0.637, "POP_CLASS": 8, "POP2000": 448607, "POP2007": 503375 }, "geometry": { "type": "Point", "coordinates": [ -106.609991096511862, 35.110700137401466 ] } },
{ "type": "Feature", "properties": { "OBJECTID": 857, "NAME": "Oklahoma City", "CLASS": "City", "ST": "OK", "STFIPS": "40", "PLACEFIP": "55000", "CAPITAL": "State", "AREALAND": 606.983, "AREAWATER": 14.163, "POP_CLASS": 9, "POP2000": 506132, "POP2007": 552556 }, "geometry": { "type": "Point", "coordinates": [ -97.534991101158369, 35.482308665512562 ] } },
{ "type": "Feature", "properties": { "OBJECTID": 883, "NAME": "Fort Worth", "CLASS": "City", "ST": "TX", "STFIPS": "48", "PLACEFIP": "27000", "CAPITAL": " ", "AREALAND": 292.539, "AREAWATER": 6.354, "POP_CLASS": 9, "POP2000": 534694, "POP2007": 609154 }, "geometry": { "type": "Point", "coordinates": [ -97.333791106474337, 32.738881655763862 ] } },
{ "type": "Feature", "properties": { "OBJECTID": 900, "NAME": "Dallas", "CLASS": "City", "ST": "TX", "STFIPS": "48", "PLACEFIP": "19000", "CAPITAL": " ", "AREALAND": 342.542, "AREAWATER": 42.456, "POP_CLASS": 10, "POP2000": 1188580, "POP2007": 1259459 }, "geometry": { "type": "Point", "coordinates": [ -96.787163597621884, 32.799527136668075 ] } },
{ "type": "Feature", "properties": { "OBJECTID": 1117, "NAME": "San Antonio", "CLASS": "City", "ST": "TX", "STFIPS": "48", "PLACEFIP": "65000", "CAPITAL": " ", "AREALAND": 407.557, "AREAWATER": 4.514, "POP_CLASS": 10, "POP2000": 1144646, "POP2007": 1259735 }, "geometry": { "type": "Point", "coordinates": [ -98.512681586585927, 29.451536143378348 ] } },
{ "type": "Feature", "properties": { "OBJECTID": 1128, "NAME": "Austin", "CLASS": "City", "ST": "TX", "STFIPS": "48", "PLACEFIP": "05000", "CAPITAL": "State", "AREALAND": 251.518, "AREAWATER": 6.908, "POP_CLASS": 9, "POP2000": 656562, "POP2007": 736677 }, "geometry": { "type": "Point", "coordinates": [ -97.747245581318509, 30.300472639400823 ] } },
{ "type": "Feature", "properties": { "OBJECTID": 1172, "NAME": "Houston", "CLASS": "City", "ST": "TX", "STFIPS": "48", "PLACEFIP": "35000", "CAPITAL": " ", "AREALAND": 579.413, "AREAWATER": 22.277, "POP_CLASS": 10, "POP2000": 1953631, "POP2007": 2109413 }, "geometry": { "type": "Point", "coordinates": [ -95.383172607030133, 29.762891151105805 ] } },
{ "type": "Feature", "properties": { "OBJECTID": 1454, "NAME": "Milwaukee", "CLASS": "City", "ST": "WI", "STFIPS": "55", "PLACEFIP": "53000", "CAPITAL": " ", "AREALAND": 96.064, "AREAWATER": 0.85, "POP_CLASS": 9, "POP2000": 596974, "POP2007": 586025 }, "geometry": { "type": "Point", "coordinates": [ -87.955909085835629, 43.052163679310411 ] } },
{ "type": "Feature", "properties": { "OBJECTID": 1514, "NAME": "Detroit", "CLASS": "City", "ST": "MI", "STFIPS": "26", "PLACEFIP": "22000", "CAPITAL": " ", "AREALAND": 138.768, "AREAWATER": 4.177, "POP_CLASS": 9, "POP2000": 951270, "POP2007": 905161 }, "geometry": { "type": "Point", "coordinates": [ -83.102636574118549, 42.38713616660084 ] } },
{ "type": "Feature", "properties": { "OBJECTID": 1704, "NAME": "Boston", "CLASS": "City", "ST": "MA", "STFIPS": "25", "PLACEFIP": "07000", "CAPITAL": "State", "AREALAND": 48.426, "AREAWATER": 41.208, "POP_CLASS": 9, "POP2000": 589141, "POP2007": 577937 }, "geometry": { "type": "Point", "coordinates": [ -71.089118055653728, 42.321600170611418 ] } },
{ "type": "Feature", "properties": { "OBJECTID": 1855, "NAME": "Jacksonville", "CLASS": "City", "ST": "FL", "STFIPS": "12", "PLACEFIP": "35000", "CAPITAL": " ", "AREALAND": 757.673, "AREAWATER": 116.648, "POP_CLASS": 9, "POP2000": 735617, "POP2007": 852360 }, "geometry": { "type": "Point", "coordinates": [ -81.660000093729309, 30.319409127729102 ] } },
{ "type": "Feature", "properties": { "OBJECTID": 2088, "NAME": "Memphis", "CLASS": "City", "ST": "TN", "STFIPS": "47", "PLACEFIP": "48000", "CAPITAL": " ", "AREALAND": 279.318, "AREAWATER": 15.443, "POP_CLASS": 9, "POP2000": 650100, "POP2007": 646002 }, "geometry": { "type": "Point", "coordinates": [ -89.971063574724155, 35.117363632625597 ] } },
{ "type": "Feature", "properties": { "OBJECTID": 2105, "NAME": "Nashville", "CLASS": "City (Consolidated", "ST": "TN", "STFIPS": "47", "PLACEFIP": "52006", "CAPITAL": "State", "AREALAND": 473.315, "AREAWATER": 23.689, "POP_CLASS": 9, "POP2000": 545524, "POP2007": 575052 }, "geometry": { "type": "Point", "coordinates": [ -86.76213659572727, 36.154835669730403 ] } },
{ "type": "Feature", "properties": { "OBJECTID": 2317, "NAME": "Chicago", "CLASS": "City", "ST": "IL", "STFIPS": "17", "PLACEFIP": "14000", "CAPITAL": " ", "AREALAND": 227.131, "AREAWATER": 6.869, "POP_CLASS": 10, "POP2000": 2896016, "POP2007": 2921775 }, "geometry": { "type": "Point", "coordinates": [ -87.679363592455786, 41.840672167986213 ] } },
{ "type": "Feature", "properties": { "OBJECTID": 2407, "NAME": "Indianapolis", "CLASS": "City (Consolidated", "ST": "IN", "STFIPS": "18", "PLACEFIP": "36003", "CAPITAL": "State", "AREALAND": 361.478, "AREAWATER": 6.678, "POP_CLASS": 9, "POP2000": 781870, "POP2007": 794158 }, "geometry": { "type": "Point", "coordinates": [ -86.1476816030235, 39.790945647823435 ] } },
{ "type": "Feature", "properties": { "OBJECTID": 2548, "NAME": "Columbus", "CLASS": "City", "ST": "OH", "STFIPS": "39", "PLACEFIP": "18000", "CAPITAL": "State", "AREALAND": 210.267, "AREAWATER": 2.281, "POP_CLASS": 9, "POP2000": 711470, "POP2007": 749160 }, "geometry": { "type": "Point", "coordinates": [ -82.991463571686438, 39.98978164140965 ] } },
{ "type": "Feature", "properties": { "OBJECTID": 2755, "NAME": "Atlanta", "CLASS": "City", "ST": "GA", "STFIPS": "13", "PLACEFIP": "04000", "CAPITAL": "State", "AREALAND": 131.746, "AREAWATER": 0.678, "POP_CLASS": 8, "POP2000": 416474, "POP2007": 463421 }, "geometry": { "type": "Point", "coordinates": [ -84.403172595338958, 33.759508632817187 ] } },
{ "type": "Feature", "properties": { "OBJECTID": 2833, "NAME": "Charlotte", "CLASS": "City", "ST": "NC", "STFIPS": "37", "PLACEFIP": "12000", "CAPITAL": " ", "AREALAND": 242.267, "AREAWATER": 0.598, "POP_CLASS": 9, "POP2000": 540828, "POP2007": 631006 }, "geometry": { "type": "Point", "coordinates": [ -80.82922707017309, 35.207191147153765 ] } },
{ "type": "Feature", "properties": { "OBJECTID": 3032, "NAME": "Baltimore", "CLASS": "City", "ST": "MD", "STFIPS": "24", "PLACEFIP": "04000", "CAPITAL": " ", "AREALAND": 80.804, "AREAWATER": 11.274, "POP_CLASS": 9, "POP2000": 651154, "POP2007": 627932 }, "geometry": { "type": "Point", "coordinates": [ -76.617018074024884, 39.307954649887222 ] } },
{ "type": "Feature", "properties": { "OBJECTID": 3122, "NAME": "Philadelphia", "CLASS": "City", "ST": "PA", "STFIPS": "42", "PLACEFIP": "60000", "CAPITAL": " ", "AREALAND": 135.089, "AREAWATER": 7.546, "POP_CLASS": 10, "POP2000": 1517550, "POP2007": 1475892 }, "geometry": { "type": "Point", "coordinates": [ -75.144791072649866, 39.998009148503456 ] } },
{ "type": "Feature", "properties": { "OBJECTID": 3183, "NAME": "Washington", "CLASS": "City", "ST": "DC", "STFIPS": "11", "PLACEFIP": "50000", "CAPITAL": "National", "AREALAND": 61.403, "AREAWATER": 6.938, "POP_CLASS": 9, "POP2000": 572059, "POP2007": 591318 }, "geometry": { "type": "Point", "coordinates": [ -77.01321808594588, 38.913609165031005 ] } },
{ "type": "Feature", "properties": { "OBJECTID": 3390, "NAME": "New York", "CLASS": "City", "ST": "NY", "STFIPS": "36", "PLACEFIP": "51000", "CAPITAL": " ", "AREALAND": 303.309, "AREAWATER": 165.563, "POP_CLASS": 10, "POP2000": 8008278, "POP2007": 8323732 }, "geometry": { "type": "Point", "coordinates": [ -73.917927059286342, 40.704236139286479 ] } }
]
}
