{"type":"FeatureCollection","features":[{"type":"Feature","properties":{"ain":"7237017013","situs_no":6363,"situs_street":"PACIFIC COAST HWY","situs_city":"LONG BEACH CA","owner":"LOS CERRITOS WETLANDS LLC","area_sqft":5192234.67959},"geometry":{"type":"Polygon","coordinates":[[[-118.104547,33.766127],[-118.104545,33.766126],[-118.104573,33.761538],[-118.104504,33.761538],[-118.104512,33.760166],[-118.104009,33.760165],[-118.104004,33.759902],[-118.104082,33.759901],[-118.10408,33.759826],[-118.104337,33.759823],[-118.104594,33.759813],[-118.10485,33.759796],[-118.105105,33.759771],[-118.105359,33.75974],[-118.105612,33.759702],[-118.105863,33.759656],[-118.10597,33.759635],[-118.105976,33.759653],[-118.10606,33.759635],[-118.11243,33.759652],[-118.112582,33.759815],[-118.112557,33.76401],[-118.111522,33.764894],[-118.111062,33.764989],[-118.109215,33.765391],[-118.105907,33.76611],[-118.105876,33.766117],[-118.105845,33.766124],[-118.105844,33.766125],[-118.105812,33.766133],[-118.105749,33.766149],[-118.105639,33.76618],[-118.10553,33.766213],[-118.105501,33.766223],[-118.105499,33.766223],[-118.105377,33.766265],[-118.105377,33.766266],[-118.10535,33.766275],[-118.105321,33.766286],[-118.105309,33.766291],[-118.105297,33.766295],[-118.105274,33.766304],[-118.105116,33.766369],[-118.104963,33.76644],[-118.104962,33.76644],[-118.104547,33.766127]]]}}]}