{"type":"FeatureCollection","features":[{"type":"Feature","properties":{"id":"SW-1","loc":"Location 1"},"geometry":{"type":"Point","coordinates":[-118.111621,33.762866]}},{"type":"Feature","properties":{"id":"SW-2","loc":"Location 2"},"geometry":{"type":"Point","coordinates":[-118.113442,33.762148]}},{"type":"Feature","properties":{"id":"SW-3","loc":"Location 3"},"geometry":{"type":"Point","coordinates":[-118.111872,33.760665]}},{"type":"Feature","properties":{"id":"SW-4","loc":"Location 4"},"geometry":{"type":"Point","coordinates":[-118.111518,33.761696]}},{"type":"Feature","properties":{"id":"SW-5","loc":"Location 5"},"geometry":{"type":"Point","coordinates":[-118.112945,33.762753]}}]}